P/2015 M2 (PANSTARRS),e,3.9703,86.5855,225.8913,7.239945,0.0505942,0.18023661,126.2119,07/13.0/2022,2000,g  8.5,4.0
# From MPEC 2021-P47
C/2015 O1 (PANSTARRS),h,02/20.1577/2018,127.1947,299.8383,89.5697,1.001518,3.723282,2000,6.5,4.0
# From MPC 99819
P/2015 P4 (PANSTARRS),e,8.7174,104.7058,280.6290,6.047004,0.0662817,0.58558270,156.6448,07/13.0/2022,2000,g 14.0,4.0
# From MPEC 2022-K19
P/2015 PD229 (Cameron-ISON),e,2.0256,342.6472,352.6410,7.190116,0.0511211,0.32787416,128.8846,07/13.0/2022,2000,g 11.5,2.0
# From MPC 96867
P/2015 Q2 (Pimentel),e,146.5390,228.5089,244.6159,7.352885,0.0494331,0.75054648,123.6540,07/13.0/2022,2000,g 15.5,4.0
# From MPC 98562
P/2015 R1 (PANSTARRS),e,22.6938,48.3454,300.5481,5.880211,0.0691217,0.63439086,177.6082,07/13.0/2022,2000,g 14.0,4.0
# From MPC 95734
P/2015 R2 (PANSTARRS),e,15.4856,168.5972,149.8377,4.486129,0.1037281,0.45287269,268.0689,07/13.0/2022,2000,g 14.5,4.0
# From MPEC 2022-N37
C/2015 R3 (PANSTARRS),h,02/12.6797/2014,83.4281,36.3074,272.0419,1.000380,4.901533,2000,10.0,4.0
# From MPC 96280
P/2015 T3 (PANSTARRS),e,13.0937,120.5019,178.6330,4.326181,0.1095335,0.50818108,359.9227,12/21.0/2014,2000,g 14.0,4.0
# From MPC102953
P/2015 TO19 (Lemmon-PANSTARRS),e,6.5001,321.6378,89.1454,4.553003,0.1014512,0.35909149,235.2825,07/13.0/2022,2000,g 14.0,4.0
# From MPC110080
P/2015 TP200 (LINEAR),e,8.7807,7.0202,82.4609,7.266530,0.0503169,0.53584589,104.8596,07/13.0/2022,2000,g 11.0,4.0
# From MPEC 2022-N37
C/2015 TQ209 (LINEAR),e,11.3146,223.5005,281.9230,475.7300,0.0000950,0.99703327,0.0000,08/24.6167/2016,2000,g 10.5,4.0
# From MPC115881
C/2015 V1 (PANSTARRS),e,139.2298,197.1441,179.6708,2168,0.0000098,0.99802718,0.0000,12/16.4214/2017,2000,g  6.5,4.0
# From MPC112390
C/2015 V2 (Johnson),h,06/10.9054/2017,49.7956,70.0136,164.9665,1.001673,1.648453,2000,5.0,4.0
# From MPC115881
C/2015 VL62 (Lemmon-Yeung-PANSTARRS),h,08/28.1414/2017,165.8236,95.1973,128.9970,1.001829,2.724768,2000,8.0,4.0
# From MPC101098
P/2015 W2 (Catalina),e,11.6086,294.1830,117.5174,7.291277,0.0500609,0.63498909,123.8892,07/13.0/2022,2000,g 13.0,4.0
# From MPEC 2021-N06
P/2015 X1 (PANSTARRS),e,12.1522,161.7587,218.7518,3.637643,0.1420607,0.41939445,352.0887,07/13.0/2022,2000,g 16.0,4.0
# From MPEC 2021-P47
C/2015 XY1 (Lemmon),h,04/25.9127/2018,148.8516,281.5875,196.1471,1.000295,7.923398,2000,5.5,4.0
# From MPC 97498
P/2015 X3 (PANSTARRS),e,24.4041,77.2727,306.7368,5.005508,0.0880100,0.43987659,222.4454,07/13.0/2022,2000,g 15.0,4.0
# From MPC119995
C/2015 X5 (PANSTARRS),e,124.3143,122.3209,27.5587,23770,0.0000003,0.99971417,0.0000,12/27.5549/2017,2000,g  7.5,4.0
# From MPC115881
P/2015 X6 (PANSTARRS),e,4.5646,106.9373,329.7899,2.752814,0.2157937,0.17295834,136.8063,07/13.0/2022,2000,g 16.0,4.0
# From MPEC 2021-P47
C/2016 A1 (PANSTARRS),e,121.2106,128.1837,10.1144,14140,0.0000006,0.99962397,0.0000,11/21.1119/2017,2000,g  6.0,4.0
# From MPC100282
P/2016 A2 (Christensen),e,26.4031,291.6177,141.3027,4.753466,0.0951017,0.27071872,246.0109,07/13.0/2022,2000,g 11.5,4.0
# From MPEC 2022-K19
P/2016 A3 (PANSTARRS),e,8.5104,187.2325,340.9605,7.882786,0.0445333,0.38608679,84.7647,07/13.0/2022,2000,g 10.0,4.0
# From MPEC 2022-N37
C/2016 A5 (PANSTARRS),e,40.2464,136.1635,321.3318,564.8019,0.0000734,0.99482130,0.0000,06/27.8906/2015,2000,g 13.5,4.0
# From MPC102098
P/2016 A7 (PANSTARRS),e,16.6035,221.4972,352.5598,5.034560,0.0872493,0.56440898,203.6632,07/13.0/2022,2000,g 16.0,4.0
# From MPC109143
P/2016 BA14 (PANSTARRS),e,18.8959,180.5158,351.9421,3.026016,0.1872394,0.66490320,73.1630,07/13.0/2022,2000,g 21.0,4.0
# From MPC110494
C/2016 E1 (PANSTARRS),h,06/03.6403/2017,131.8655,233.1348,47.4437,1.006046,8.172353,2000,6.5,4.0
# From MPEC 2022-L66
C/2016 E2 (Kowalski),h,02/08.3804/2016,135.9017,187.0778,322.1908,1.000385,1.067349,2000,20.0,4.0
# From MPEC 2017-D91
P/2016 J1-A (PANSTARRS),e,14.3288,199.8123,47.0047,3.171899,0.1744717,0.22767363,24.8165,07/13.0/2022,2000,g 16.5,4.0
# From MPEC 2017-A77
P/2016 J1-B (PANSTARRS),e,14.3316,199.8171,46.8958,3.171531,0.1745021,0.22752452,24.9587,07/13.0/2022,2000,g 17.0,4.0
# From MPEC 2022-N37
C/2016 KA (Catalina),h,02/04.3583/2016,104.6741,317.5064,63.2350,1.000581,5.405783,2000,8.5,4.0
# From MPEC 2022-ED3
C/2016 M1 (PANSTARRS),e,90.9111,92.2469,209.9373,987602,0.0000000,0.99999776,0.0000,08/10.5670/2018,2000,g  5.0,4.0
# From MPEC 2022-K19
C/2016 N4 (MASTER),e,72.6542,353.9901,55.9571,6225,0.0000020,0.99948655,0.0000,09/17.5637/2017,2000,g  8.5,4.0
# From MPEC 2021-P47
C/2016 N6 (PANSTARRS),e,105.8503,298.9466,162.6129,1043,0.0000293,0.99744807,0.0000,07/17.6532/2018,2000,g  7.0,4.0
# From MPC102099
P/2016 P1 (PANSTARRS),e,24.4460,319.5656,270.2811,3.196620,0.1724518,0.28935869,68.4933,07/13.0/2022,2000,g 15.0,4.0
# From MPEC 2022-N37
P/2016 PM1 (WISE-PANSTARRS),e,22.1250,89.4049,170.8959,3.427747,0.1553070,0.57022703,0.4064,07/13.0/2022,2000,g 17.0,4.0
# From MPEC 2022-M21
C/2016 P4 (PANSTARRS),e,29.9022,320.7322,356.2360,424.1819,0.0001128,0.98606001,0.0000,10/17.8546/2016,2000,g 10.5,4.0
# From MPEC 2022-M21
C/2016 Q2 (PANSTARRS),h,05/12.2491/2021,109.3866,322.3018,84.5508,1.002360,7.081989,2000,6.0,4.0
# From MPC102955
C/2016 Q4 (Kowalski),e,7.2493,271.2968,99.6034,17.00208,0.0140589,0.58282200,22.8369,07/13.0/2022,2000,g  7.0,4.0
# From MPEC 2021-N06
C/2016 R2 (PANSTARRS),e,58.2976,80.5269,33.1032,475.8571,0.0000949,0.99454038,0.0000,05/09.0385/2018,2000,g  7.0,4.0
# From MPEC 2022-K19
P/2016 R4 (Gibbs),e,10.8781,168.2613,174.1069,5.332098,0.0800492,0.47637023,174.5202,07/13.0/2022,2000,g 12.5,4.0
# From MPC105543
P/2016 S1 (PANSTARRS),e,94.7193,227.6271,273.2694,8.277075,0.0413894,0.71013494,80.4920,07/13.0/2022,2000,g 12.0,4.0
# From MPC110082
C/2016 T3 (PANSTARRS),e,22.7099,271.6695,194.5764,129.0448,0.0006723,0.97954841,0.0000,09/06.7834/2017,2000,g 10.5,4.0
# From MPC106345
P/2016 WM48 (Lemmon),e,117.5493,59.9240,36.1234,8.167418,0.0422257,0.78351249,83.0069,07/13.0/2022,2000,g 15.0,4.0
# From MPEC 2021-P47
C/2016 X1 (Lemmon),e,26.4558,256.3604,224.4726,1283,0.0000215,0.99410814,0.0000,04/27.7879/2019,2000,g  6.0,4.0
# From MPC114598
C/2017 AB5 (PANSTARRS),e,32.4603,42.6033,78.2856,2396,0.0000084,0.99615724,0.0000,02/14.4010/2018,2000,g  5.5,4.0
# From MPEC 2022-A21
C/2017 B3 (LINEAR),h,02/01.8836/2019,54.1583,2.1747,284.8251,1.000655,3.927545,2000,6.0,4.0
# From MPC103847
P/2017 B4 (PANSTARRS),e,20.0584,121.4578,11.0197,4.410520,0.1064068,0.36495152,359.9130,01/05.0/2017,2000,g 14.5,4.0
# From MPC104793
P/2017 D1 (Fuls),e,20.7631,82.1846,7.9594,4.828452,0.0928950,0.43665936,205.4134,07/13.0/2022,2000,g 14.0,4.0
# From MPC112391
C/2017 D2 (Barros),e,31.2567,330.9581,334.6525,16351,0.0000005,0.99984711,0.0000,07/14.5183/2017,2000,g 11.0,4.0
# From MPEC 2022-K19
P/2017 D4 (PANSTARRS),e,10.5431,264.9396,212.1689,7.551129,0.0474992,0.62863029,101.5165,07/13.0/2022,2000,g 13.0,4.0
# From MPEC 2021-P47
C/2017 E3 (PANSTARRS),h,06/07.1174/2017,70.6649,220.8050,334.4385,1.005713,5.934731,2000,6.5,4.0
# From MPEC 2022-M21
C/2017 E5 (Lemmon),e,122.6706,206.4991,306.9311,391.7329,0.0001271,0.99545180,0.0000,06/11.8467/2016,2000,g 13.0,4.0
# From MPC111769
C/2017 F1 (Lemmon),h,11/28.4080/2017,146.4627,158.7879,64.7189,1.001699,4.498564,2000,10.5,4.0
# From MPC114598
C/2017 F2 (PANSTARRS),h,11/25.8234/2017,42.5537,38.7023,134.9162,1.001981,6.925889,2000,7.5,4.0
# From MPC104794
P/2017 G1 (PANSTARRS),e,4.7811,249.6592,224.3966,7.277865,0.0501993,0.65337839,113.8571,07/13.0/2022,2000,g 13.5,4.0
# From MPC108595
P/2017 G2 (PANSTARRS),e,47.9559,79.8205,105.4559,8.054681,0.0431153,0.64754401,80.1696,07/13.0/2022,2000,g 13.0,4.0
# From MPC115882
C/2017 K1 (PANSTARRS),h,03/17.9748/2018,154.0213,225.7215,4.4317,1.003453,7.285526,2000,7.0,4.0
# From MPEC 2022-M21
C/2017 K2 (PANSTARRS),h,12/19.6832/2022,87.5615,88.2353,236.1970,1.000789,1.796932,2000,1.5,4.0
# From MPEC 2021-N06
P/2017 K3 (Gasparovic),e,4.2731,354.2890,253.4418,5.584515,0.0746837,0.57939135,139.7266,07/13.0/2022,2000,g 14.5,4.0
# From MPC114598
C/2017 K4 (ATLAS),e,16.6674,298.9042,15.3360,28.68641,0.0064149,0.90729036,10.5631,07/13.0/2022,2000,g 10.0,4.0
# From MPEC 2021-P47
C/2017 K5 (PANSTARRS),h,03/27.3716/2020,82.2441,102.3791,172.0645,1.005386,7.683600,2000,5.0,4.0
# From MPC114599
C/2017 K6 (Jacques),e,57.2244,84.9228,303.7924,1201,0.0000237,0.99833888,0.0000,01/03.9732/2018,2000,g 11.0,4.0
# From MPEC 2021-Y10
C/2017 M4 (ATLAS),h,01/17.9704/2019,105.6439,65.9444,167.6176,1.001382,3.253095,2000,6.0,4.0
# From MPC118841
C/2017 M5 (TOTAS),h,06/04.4175/2018,15.8646,216.2891,92.8508,1.005315,6.002716,2000,6.5,4.0
# From MPC114599
C/2017 O1 (ASASSN),e,39.9821,25.7175,20.8397,374.7856,0.0001358,0.99602207,0.0000,10/15.7962/2017,2000,g 11.0,4.0
# From MPC114599
P/2017 P1 (PANSTARRS),e,7.6904,221.3729,122.6275,7.909822,0.0443051,0.31099866,65.6497,07/13.0/2022,2000,g 10.0,4.0
# From MPC114599
C/2017 P2 (PANSTARRS),e,50.0481,165.4555,132.5022,2565,0.0000076,0.99903531,0.0000,12/06.0554/2017,2000,g 10.0,4.0
# From MPC108595
C/2017 S2 (PANSTARRS),e,12.6693,62.3262,306.1183,20.64558,0.0105066,0.82492989,18.6730,07/13.0/2022,2000,g 13.0,4.0
# From MPC114599
C/2017 S3 (PANSTARRS),h,08/16.5113/2018,99.2119,171.3200,255.8397,1.000088,0.205859,2000,12.9,4.0
# From MPC109591
C/2017 S6 (Catalina),h,02/26.1301/2018,152.8658,131.0927,134.9766,1.000882,1.550666,2000,12.5,4.0
# From MPC114599
C/2017 S7 (Lemmon),e,124.2242,262.7260,187.5085,5520,0.0000024,0.99862195,0.0000,05/23.6031/2017,2000,g  7.0,4.0
# From MPC114599
P/2017 S8 (PANSTARRS),e,29.8587,191.5262,254.8213,2.779150,0.2127335,0.39092623,346.1006,07/13.0/2022,2000,g 16.0,4.0
# From MPC107050
P/2017 S9 (PANSTARRS),e,14.1432,146.2245,237.6230,3.155272,0.1758527,0.30558112,319.6640,07/13.0/2022,2000,g 17.0,4.0
# From MPC114600
C/2017 T1 (Heinze),e,96.8964,102.5037,97.0217,10868,0.0000009,0.99994610,0.0000,02/20.6697/2018,2000,g 14.5,4.0
# From MPEC 2021-Y10
C/2017 T2 (PANSTARRS),e,57.2475,64.3951,92.9587,1736,0.0000136,0.99906976,0.0000,05/04.7943/2020,2000,g  5.0,4.0
